[{"OBJECT_NAME":"STARLINK-35885","OBJECT_ID":"2025-283N","EPOCH":"2026-03-09T03:54:23.708160","MEAN_MOTION":15.30188363,"ECCENTRICITY":0.00011031,"INCLINATION":53.1607,"RA_OF_ASC_NODE":26.6013,"ARG_OF_PERICENTER":89.2595,"MEAN_ANOMALY":270.8532,"EPHEMERIS_TYPE":0,"CLASSIFICATION_TYPE":"U","NORAD_CAT_ID":66890,"ELEMENT_SET_NO":999,"REV_AT_EPOCH":1576,"BSTAR":0.0010857992,"MEAN_MOTION_DOT":0.00031926,"MEAN_MOTION_DDOT":0},{"OBJECT_NAME":"ATLAS 28E DEB","OBJECT_ID":"1990-031H","EPOCH":"2026-03-09T12:57:08.289792","MEAN_MOTION":15.28884159,"ECCENTRICITY":0.00278203,"INCLINATION":89.4108,"RA_OF_ASC_NODE":276.7439,"ARG_OF_PERICENTER":214.1843,"MEAN_ANOMALY":145.7617,"EPHEMERIS_TYPE":0,"CLASSIFICATION_TYPE":"U","NORAD_CAT_ID":20576,"ELEMENT_SET_NO":999,"REV_AT_EPOCH":37205,"BSTAR":0.00056600809,"MEAN_MOTION_DOT":0.00016095,"MEAN_MOTION_DDOT":0}]
